{"fetched_at":"2026-07-06T08:47:21.286Z","source":"https://celestrak.org/NORAD/elements/gp.php?NAME=SPACEMOBILE&FORMAT=JSON","constellation":"ast-spacemobile","records":[{"OBJECT_NAME":"SPACEMOBILE-003","OBJECT_ID":"2024-163A","EPOCH":"2026-06-26T19:29:47.816736","CLASSIFICATION_TYPE":"U","MEAN_MOTION":15.20822722,"ECCENTRICITY":0.0005991,"INCLINATION":52.9744,"RA_OF_ASC_NODE":265.1828,"ARG_OF_PERICENTER":141.0621,"MEAN_ANOMALY":219.0806,"EPHEMERIS_TYPE":0,"NORAD_CAT_ID":61045,"ELEMENT_SET_NO":999,"REV_AT_EPOCH":9923,"BSTAR":0.000090246,"MEAN_MOTION_DOT":0.00001689,"MEAN_MOTION_DDOT":0},{"OBJECT_NAME":"SPACEMOBILE-005","OBJECT_ID":"2024-163B","EPOCH":"2026-07-05T08:07:55.280064","CLASSIFICATION_TYPE":"U","MEAN_MOTION":15.20849837,"ECCENTRICITY":0.000888,"INCLINATION":52.9799,"RA_OF_ASC_NODE":225.9069,"ARG_OF_PERICENTER":165.7237,"MEAN_ANOMALY":194.401,"EPHEMERIS_TYPE":0,"NORAD_CAT_ID":61046,"ELEMENT_SET_NO":999,"REV_AT_EPOCH":10052,"BSTAR":0.00037137,"MEAN_MOTION_DOT":0.00007991,"MEAN_MOTION_DDOT":0},{"OBJECT_NAME":"SPACEMOBILE-001","OBJECT_ID":"2024-163C","EPOCH":"2026-07-05T08:05:53.354976","CLASSIFICATION_TYPE":"U","MEAN_MOTION":15.20848588,"ECCENTRICITY":0.0007583,"INCLINATION":52.9753,"RA_OF_ASC_NODE":225.6311,"ARG_OF_PERICENTER":163.1082,"MEAN_ANOMALY":197.0166,"EPHEMERIS_TYPE":0,"NORAD_CAT_ID":61047,"ELEMENT_SET_NO":999,"REV_AT_EPOCH":10052,"BSTAR":0.00017753,"MEAN_MOTION_DOT":0.00003645,"MEAN_MOTION_DDOT":0},{"OBJECT_NAME":"SPACEMOBILE-002","OBJECT_ID":"2024-163D","EPOCH":"2026-07-05T07:42:58.112352","CLASSIFICATION_TYPE":"U","MEAN_MOTION":15.20875679,"ECCENTRICITY":0.0006559,"INCLINATION":52.9734,"RA_OF_ASC_NODE":225.7454,"ARG_OF_PERICENTER":164.5649,"MEAN_ANOMALY":195.5546,"EPHEMERIS_TYPE":0,"NORAD_CAT_ID":61048,"ELEMENT_SET_NO":999,"REV_AT_EPOCH":10052,"BSTAR":0.00048777,"MEAN_MOTION_DOT":0.00010607,"MEAN_MOTION_DDOT":0},{"OBJECT_NAME":"SPACEMOBILE-004","OBJECT_ID":"2024-163E","EPOCH":"2026-07-05T05:42:59.152032","CLASSIFICATION_TYPE":"U","MEAN_MOTION":15.20791744,"ECCENTRICITY":0.00075158,"INCLINATION":52.9657,"RA_OF_ASC_NODE":225.9143,"ARG_OF_PERICENTER":192.6523,"MEAN_ANOMALY":167.4283,"EPHEMERIS_TYPE":0,"NORAD_CAT_ID":61049,"ELEMENT_SET_NO":999,"REV_AT_EPOCH":10051,"BSTAR":0.00083351746,"MEAN_MOTION_DOT":0.00018336,"MEAN_MOTION_DDOT":0},{"OBJECT_NAME":"SPACEMOBILE-006","OBJECT_ID":"2025-309A","EPOCH":"2026-07-05T08:08:28.965696","CLASSIFICATION_TYPE":"U","MEAN_MOTION":15.18640942,"ECCENTRICITY":0.0010738,"INCLINATION":52.9961,"RA_OF_ASC_NODE":248.4864,"ARG_OF_PERICENTER":183.0805,"MEAN_ANOMALY":177.0124,"EPHEMERIS_TYPE":0,"NORAD_CAT_ID":67232,"ELEMENT_SET_NO":999,"REV_AT_EPOCH":2935,"BSTAR":0.00014336,"MEAN_MOTION_DOT":0.00002688,"MEAN_MOTION_DDOT":0},{"OBJECT_NAME":"SPACEMOBILE-008","OBJECT_ID":"2026-139A","EPOCH":"2026-07-05T09:00:09.800352","CLASSIFICATION_TYPE":"U","MEAN_MOTION":15.12792661,"ECCENTRICITY":0.0004555,"INCLINATION":52.9937,"RA_OF_ASC_NODE":179.9917,"ARG_OF_PERICENTER":32.516,"MEAN_ANOMALY":327.6111,"EPHEMERIS_TYPE":0,"NORAD_CAT_ID":69589,"ELEMENT_SET_NO":999,"REV_AT_EPOCH":273,"BSTAR":0.000053437,"MEAN_MOTION_DOT":0.00000648,"MEAN_MOTION_DDOT":0},{"OBJECT_NAME":"SPACEMOBILE-009","OBJECT_ID":"2026-139B","EPOCH":"2026-07-05T09:01:59.486016","CLASSIFICATION_TYPE":"U","MEAN_MOTION":15.12686017,"ECCENTRICITY":0.0004779,"INCLINATION":52.9928,"RA_OF_ASC_NODE":179.9954,"ARG_OF_PERICENTER":27.5177,"MEAN_ANOMALY":332.6066,"EPHEMERIS_TYPE":0,"NORAD_CAT_ID":69590,"ELEMENT_SET_NO":999,"REV_AT_EPOCH":273,"BSTAR":0.000054594,"MEAN_MOTION_DOT":0.00000666,"MEAN_MOTION_DDOT":0},{"OBJECT_NAME":"SPACEMOBILE-010","OBJECT_ID":"2026-139C","EPOCH":"2026-07-05T09:04:53.760000","CLASSIFICATION_TYPE":"U","MEAN_MOTION":15.12517151,"ECCENTRICITY":0.0004653,"INCLINATION":52.9932,"RA_OF_ASC_NODE":180.0103,"ARG_OF_PERICENTER":18.4515,"MEAN_ANOMALY":341.6644,"EPHEMERIS_TYPE":0,"NORAD_CAT_ID":69591,"ELEMENT_SET_NO":999,"REV_AT_EPOCH":274,"BSTAR":0.000056567,"MEAN_MOTION_DOT":0.00000696,"MEAN_MOTION_DDOT":0}]}
