SPACEMOBILE-003         
1 61045U 24163A   26177.81235899  .00001689  00000+0  90246-4 0  9998
2 61045  52.9744 265.1828 0005991 141.0621 219.0806 15.20822722 99230
SPACEMOBILE-005         
1 61046U 24163B   26186.33883426  .00007991  00000+0  37137-3 0  9992
2 61046  52.9799 225.9069 0008880 165.7237 194.4010 15.20849837100522
SPACEMOBILE-001         
1 61047U 24163C   26186.33742310  .00003645  00000+0  17753-3 0  9993
2 61047  52.9753 225.6311 0007583 163.1082 197.0166 15.20848588100522
SPACEMOBILE-002         
1 61048U 24163D   26186.32150593  .00010607  00000+0  48777-3 0  9995
2 61048  52.9734 225.7454 0006559 164.5649 195.5546 15.20875679100523
SPACEMOBILE-004         
1 61049U 24163E   26186.23818463  .00018336  00000+0  83352-3 0  9998
2 61049  52.9657 225.9143 0007515 192.6523 167.4283 15.20791744100516
SPACEMOBILE-006         
1 67232U 25309A   26186.33922415  .00002688  00000+0  14336-3 0  9994
2 67232  52.9961 248.4864 0010738 183.0805 177.0124 15.18640942 29355
SPACEMOBILE-008         
1 69589U 26139A   26186.37511343  .00000648  00000+0  53437-4 0  9991
2 69589  52.9937 179.9917 0004555  32.5160 327.6111 15.12792661  2736
SPACEMOBILE-009         
1 69590U 26139B   26186.37638295  .00000666  00000+0  54594-4 0  9994
2 69590  52.9928 179.9954 0004778  27.5177 332.6066 15.12686017  2730
SPACEMOBILE-010         
1 69591U 26139C   26186.37840000  .00000696  00000+0  56567-4 0  9999
2 69591  52.9932 180.0103 0004652  18.4515 341.6644 15.12517151  2746
